0 SL-8 R/B
1 18710U 87106B   13283.49021238  .00000056  00000-0  42778-4 0  2474
2 18710 082.9101 249.5985 0021965 244.2658 255.6423 13.75922551295278
0 SL-8 R/B
1 18710U 87106B   13285.86746583  .00000031  00000-0  16483-4 0  2482
2 18710 082.9105 247.8264 0022024 237.2635 151.3057 13.75922829295607
0 SL-8 R/B
1 18710U 87106B   13288.20704332  .00000059  00000-0  45513-4 0  2496
2 18710 082.9112 246.0823 0022198 230.4811 220.2379 13.75922964295928
0 SL-8 R/B
1 18710U 87106B   13290.47123365  .00000071  00000-0  57480-4 0  2501
2 18710 082.9116 244.3947 0022324 223.9334 275.7296 13.75922983296237
0 SL-8 R/B
1 18710U 87106B   13292.50691241  .00000080  00000-0  66918-4 0  2517
2 18710 082.9118 242.8777 0022418 218.0200 279.3335 13.75923025296517
0 SL-8 R/B
1 18710U 87106B   13294.80977874  .00000082  00000-0  68589-4 0  2520
2 18710 082.9119 241.1618 0022548 211.4148 166.3495 13.75923350296834
0 SL-8 R/B
1 18710U 87106B   13296.21046164  .00000074  00000-0  60237-4 0  2530
2 18710 082.9120 240.1180 0022672 207.5054 264.3845 13.75923596297021
